 
    Coasting Arc #2 (Orbit 3040)
    ---------------------------------------
 
    Vector Time (GMT): 2016/075/12:00:00.000
    Vector Time (MET): N/A
    Weight (LBS)     : 890369.9
 
              M50 Cartesian                         M50 Keplerian  
    -----------------------------------       --------------------------------
     X    =        5769203.92                 A    =         6788015.33  meter
     Y    =       -3093511.79  meter          E    =           .0012203
     Z    =        1773413.53                 I    =           51.75230
     XDOT =       3686.220829                 Wp   =          114.88570
     YDOT =       3605.005731  meter/sec      RA   =          164.12956  deg
     ZDOT =      -5677.787982                 TA   =           45.66636
                                              MA   =           45.56640
                                              Ha   =            220.447  n.mi
                                              Hp   =            215.260
 
              M50 Cartesian                         J2K Cartesian  
    -----------------------------------       --------------------------------
     X    =       18927834.39                 X    =         5794753.12
     Y    =      -10149316.90  feet           Y    =        -3028853.70  meter
     Z    =        5818285.86                 Z    =         1801501.09
     XDOT =      12093.900356                 XDOT =        3673.214917
     YDOT =      11827.446623  feet/sec       YDOT =        3646.154258  meter/sec
     ZDOT =     -18627.913326                 ZDOT =       -5659.913248
 
              TDR Cartesian                         TDR Cartesian  
    -----------------------------------       --------------------------------
     X    =       20030039.22                 X    =         6105155.95
     Y    =       -7656978.79  feet           Y    =        -2333847.13  meter
     Z    =        5940724.16                 Z    =         1810732.72
     XDOT =      10047.220759                 XDOT =        3062.392887
     YDOT =      11826.119660  feet/sec       YDOT =        3604.601272  meter/sec
     ZDOT =     -18550.863683                 ZDOT =       -5654.303250
  
  
    The mean element set is posted at the UTC for which position is
    just north of the next ascending node relative to the above
    vector time
 
 
    TWO LINE MEAN ELEMENT SET
  
    ISS
    1 25544U 98067A   16075.53573899  .00016717  00000-0  10270-3 0  9016
    2 25544  51.6420 165.0969 0001749 292.9264  67.1704 15.54103050 30418
  
  
    Satellite: ISS
    Catalog Number: 25544
    Epoch time:      16075.53573899   =   yrday.fracday
    Element set:     901
    Inclination:       51.6420  deg
    RA of node:       165.0969  deg
    Eccentricity:     .0001749     
    Arg of perigee:   292.9264  deg
    Mean anomaly:      67.1704  deg
    Mean motion:   15.54103050  rev/day
    Decay rate:    1.67170E-04  rev/day^2
    Epoch rev:            3041
    Checksum:              308
 
 
    Coasting Arc #3 (Orbit 3055)
    ---------------------------------------
 
    Vector Time (GMT): 2016/076/12:00:00.000
    Vector Time (MET): N/A
    Weight (LBS)     : 890369.9
 
              M50 Cartesian                         M50 Keplerian  
    -----------------------------------       --------------------------------
     X    =       -6310809.99                 A    =         6789367.86  meter
     Y    =        2484644.25  meter          E    =           .0011591
     Z    =         -98867.47                 I    =           51.78807
     XDOT =      -1814.942806                 Wp   =           35.38343
     YDOT =      -4384.475964  meter/sec      RA   =          159.16737  deg
     ZDOT =       6025.074913                 TA   =          323.55364
                                              MA   =          323.63249
                                              Ha   =            220.459  n.mi
                                              Hp   =            215.298
 
              M50 Cartesian                         J2K Cartesian  
    -----------------------------------       --------------------------------
     X    =      -20704757.18                 X    =        -6337644.61
     Y    =        8151719.97  feet           Y    =         2413922.53  meter
     Z    =        -324368.34                 Z    =         -129588.97
     XDOT =      -5954.536765                 XDOT =       -1795.046612
     YDOT =     -14384.763661  feet/sec       YDOT =       -4404.660054  meter/sec
     ZDOT =      19767.306145                 ZDOT =        6016.307176
 
              TDR Cartesian                         TDR Cartesian  
    -----------------------------------       --------------------------------
     X    =      -21475904.06                 X    =        -6545855.56
     Y    =        5815354.74  feet           Y    =         1772520.13  meter
     Z    =        -458167.29                 Z    =         -139649.39
     XDOT =      -4031.669341                 XDOT =       -1228.852815
     YDOT =     -13400.619602  feet/sec       YDOT =       -4084.508855  meter/sec
     ZDOT =      19729.917693                 ZDOT =        6013.678913
  
  
    The mean element set is posted at the UTC for which position is
    just north of the next ascending node relative to the above
    vector time
 
 
    TWO LINE MEAN ELEMENT SET
  
    ISS
    1 25544U 98067A   16076.50027161  .00016717  00000-0  10270-3 0  9021
    2 25544  51.6427 160.2888 0001936 302.5119  57.5846 15.54112176 30562
  
  
    Satellite: ISS
    Catalog Number: 25544
    Epoch time:      16076.50027161   =   yrday.fracday
    Element set:     902
    Inclination:       51.6427  deg
    RA of node:       160.2888  deg
    Eccentricity:     .0001936     
    Arg of perigee:   302.5119  deg
    Mean anomaly:      57.5846  deg
    Mean motion:   15.54112176  rev/day
    Decay rate:    1.67170E-04  rev/day^2
    Epoch rev:            3056
    Checksum:              297
 
 
    Coasting Arc #4 (Orbit 3066)
    ---------------------------------------
 
    Vector Time (GMT): 2016/077/03:58:30.000
    Vector Time (MET): N/A
    Weight (LBS)     : 890369.9
 
              M50 Cartesian                         M50 Keplerian  
    -----------------------------------       --------------------------------
     X    =        2211787.17                 A    =         6781195.25  meter
     Y    =       -4726814.15  meter          E    =           .0008694
     Z    =        4326441.15                 I    =           51.77981
     XDOT =       6819.173226                 Wp   =           59.02017
     YDOT =        -30.454927  meter/sec      RA   =          155.83308  deg
     ZDOT =      -3509.820000                 TA   =           66.65214
                                              MA   =           66.56069
                                              Ha   =            220.352  n.mi
                                              Hp   =            215.204
 
              M50 Cartesian                         J2K Cartesian  
    -----------------------------------       --------------------------------
     X    =        7256519.57                 X    =         2243463.40
     Y    =      -15507920.44  feet           Y    =        -4701902.94  meter
     Z    =       14194360.72                 Z    =         4337262.75
     XDOT =      22372.615571                 XDOT =        6836.055998
     YDOT =        -99.917739  feet/sec       YDOT =          45.895653  meter/sec
     ZDOT =     -11515.157480                 ZDOT =       -3476.653478
 
              TDR Cartesian                         TDR Cartesian  
    -----------------------------------       --------------------------------
     X    =        8317980.75                 X    =         2535320.53
     Y    =       14919998.41  feet           Y    =         4547615.51  meter
     Z    =       14242099.31                 Z    =         4340991.87
     XDOT =     -12042.923070                 XDOT =       -3670.682952
     YDOT =      17598.383687  feet/sec       YDOT =        5363.987348  meter/sec
     ZDOT =     -11371.112553                 ZDOT =       -3465.915106
  
  
    The mean element set is posted at the UTC for which position is
    just north of the next ascending node relative to the above
    vector time
 
 
    TWO LINE MEAN ELEMENT SET
  
    ISS
    1 25544U 98067A   16077.20758532  .00016717  00000-0  10270-3 0  9033
    2 25544  51.6412 156.7633 0002285 311.0063  49.0892 15.54176111 30673
  
  
    Satellite: ISS
    Catalog Number: 25544
    Epoch time:      16077.20758532   =   yrday.fracday
    Element set:     903
    Inclination:       51.6412  deg
    RA of node:       156.7633  deg
    Eccentricity:     .0002285     
    Arg of perigee:   311.0063  deg
    Mean anomaly:      49.0892  deg
    Mean motion:   15.54176111  rev/day
    Decay rate:    1.67170E-04  rev/day^2
    Epoch rev:            3067
    Checksum:              290
 
 
    Coasting Arc #5 (Orbit 3081)
    ---------------------------------------
 
    Vector Time (GMT): 2016/078/03:58:30.000
    Vector Time (MET): N/A
    Weight (LBS)     : 890369.9
 
